{
  "type": "FeatureCollection",
  "features": [
    {
      "type": "Feature",
      "properties": {
        "norad_id": 44333,
        "name": "AT&T T-16",
        "group": "intelsat",
        "lat": 0.023633759865514525,
        "lon": 119.49103729227303,
        "alt_km": 35785.65530269316,
        "timestamp": "2025-12-04T09:47:37.190540+00:00",
        "meta_object_name": "AT&T T-16",
        "meta_object_id": "2019-034A",
        "meta_epoch": "2025-12-03T13:16:30.980640",
        "meta_mean_motion": 1.00268492,
        "meta_eccentricity": 4.555e-05,
        "meta_inclination": 0.0321,
        "meta_ra_of_asc_node": 73.2547,
        "meta_arg_of_pericenter": 90.5993,
        "meta_mean_anomaly": 7.0538,
        "meta_ephemeris_type": 0,
        "meta_classification_type": "U",
        "meta_norad_cat_id": 44333,
        "meta_element_set_no": 999,
        "meta_rev_at_epoch": 2367,
        "meta_bstar": 0,
        "meta_mean_motion_dot": -9.7e-07,
        "meta_mean_motion_ddot": 0,
        "tle_line1": "1 44333U 19034A   25337.55313635 -.00000097  00000+0  00000+0 0  9990",
        "tle_line2": "2 44333   0.0321  73.2547 0000455  90.5993   7.0538  1.00268492 23675"
      },
      "geometry": {
        "type": "Point",
        "coordinates": [
          119.49103729227303,
          0.023633759865514525
        ]
      }
    },
    {
      "type": "Feature",
      "properties": {
        "norad_id": 44476,
        "name": "INTELSAT 39 (IS-39)",
        "group": "intelsat",
        "lat": -0.02890966647429551,
        "lon": -77.68187349252753,
        "alt_km": 35788.449507556594,
        "timestamp": "2025-12-04T09:47:37.190551+00:00",
        "meta_object_name": "INTELSAT 39 (IS-39)",
        "meta_object_id": "2019-049B",
        "meta_epoch": "2025-12-04T00:19:24.882816",
        "meta_mean_motion": 1.00270104,
        "meta_eccentricity": 8.04e-05,
        "meta_inclination": 0.017,
        "meta_ra_of_asc_node": 325.8001,
        "meta_arg_of_pericenter": 191.873,
        "meta_mean_anomaly": 342.2214,
        "meta_ephemeris_type": 0,
        "meta_classification_type": "U",
        "meta_norad_cat_id": 44476,
        "meta_element_set_no": 999,
        "meta_rev_at_epoch": 2317,
        "meta_bstar": 0,
        "meta_mean_motion_dot": 5e-07,
        "meta_mean_motion_ddot": 0,
        "tle_line1": "1 44476U 19049B   25338.01348244  .00000050  00000+0  00000+0 0  9998",
        "tle_line2": "2 44476   0.0170 325.8001 0000804 191.8730 342.2214  1.00270104 23171"
      },
      "geometry": {
        "type": "Point",
        "coordinates": [
          -77.68187349252753,
          -0.02890966647429551
        ]
      }
    },
    {
      "type": "Feature",
      "properties": {
        "norad_id": 46114,
        "name": "GALAXY 30 (G-30)",
        "group": "intelsat",
        "lat": 0.029747531616748445,
        "lon": 95.36983444249609,
        "alt_km": 35795.44636895824,
        "timestamp": "2025-12-04T09:47:37.190563+00:00",
        "meta_object_name": "GALAXY 30 (G-30)",
        "meta_object_id": "2020-056C",
        "meta_epoch": "2025-12-03T23:26:07.489248",
        "meta_mean_motion": 1.00272904,
        "meta_eccentricity": 0.0002471,
        "meta_inclination": 0.0156,
        "meta_ra_of_asc_node": 320.1837,
        "meta_arg_of_pericenter": 293.1687,
        "meta_mean_anomaly": 46.2489,
        "meta_ephemeris_type": 0,
        "meta_classification_type": "U",
        "meta_norad_cat_id": 46114,
        "meta_element_set_no": 999,
        "meta_rev_at_epoch": 1933,
        "meta_bstar": 0,
        "meta_mean_motion_dot": 5.3e-07,
        "meta_mean_motion_ddot": 0,
        "tle_line1": "1 46114U 20056C   25337.97647557  .00000053  00000+0  00000+0 0  9995",
        "tle_line2": "2 46114   0.0156 320.1837 0002471 293.1687  46.2489  1.00272904 19338"
      },
      "geometry": {
        "type": "Point",
        "coordinates": [
          95.36983444249609,
          0.029747531616748445
        ]
      }
    },
    {
      "type": "Feature",
      "properties": {
        "norad_id": 54026,
        "name": "GALAXY 33 (G-33)",
        "group": "intelsat",
        "lat": 0.03534571144211646,
        "lon": 87.37558008564714,
        "alt_km": 35793.83465770071,
        "timestamp": "2025-12-04T09:47:37.190574+00:00",
        "meta_object_name": "GALAXY 33 (G-33)",
        "meta_object_id": "2022-128A",
        "meta_epoch": "2025-12-04T01:06:35.364096",
        "meta_mean_motion": 1.00272907,
        "meta_eccentricity": 0.0002004,
        "meta_inclination": 0.0143,
        "meta_ra_of_asc_node": 354.3098,
        "meta_arg_of_pericenter": 255.559,
        "meta_mean_anomaly": 66.9197,
        "meta_ephemeris_type": 0,
        "meta_classification_type": "U",
        "meta_norad_cat_id": 54026,
        "meta_element_set_no": 999,
        "meta_rev_at_epoch": 1178,
        "meta_bstar": 0,
        "meta_mean_motion_dot": 9.5e-07,
        "meta_mean_motion_ddot": 0,
        "tle_line1": "1 54026U 22128A   25338.04624264  .00000095  00000+0  00000+0 0  9993",
        "tle_line2": "2 54026   0.0143 354.3098 0002004 255.5590  66.9197  1.00272907 11789"
      },
      "geometry": {
        "type": "Point",
        "coordinates": [
          87.37558008564714,
          0.03534571144211646
        ]
      }
    },
    {
      "type": "Feature",
      "properties": {
        "norad_id": 54027,
        "name": "GALAXY 34 (G-34)",
        "group": "intelsat",
        "lat": 0.038336944378753776,
        "lon": 91.4264647005228,
        "alt_km": 35791.590854474,
        "timestamp": "2025-12-04T09:47:37.190586+00:00",
        "meta_object_name": "GALAXY 34 (G-34)",
        "meta_object_id": "2022-128B",
        "meta_epoch": "2025-12-03T23:24:52.608096",
        "meta_mean_motion": 1.00272182,
        "meta_eccentricity": 0.0001452,
        "meta_inclination": 0.023,
        "meta_ra_of_asc_node": 323.1009,
        "meta_arg_of_pericenter": 285.0932,
        "meta_mean_anomaly": 47.148,
        "meta_ephemeris_type": 0,
        "meta_classification_type": "U",
        "meta_norad_cat_id": 54027,
        "meta_element_set_no": 999,
        "meta_rev_at_epoch": 1195,
        "meta_bstar": 0,
        "meta_mean_motion_dot": 0,
        "meta_mean_motion_ddot": 0,
        "tle_line1": "1 54027U 22128B   25337.97560889  .00000000  00000+0  00000+0 0  9993",
        "tle_line2": "2 54027   0.0230 323.1009 0001452 285.0932  47.1480  1.00272182 11957"
      },
      "geometry": {
        "type": "Point",
        "coordinates": [
          91.4264647005228,
          0.038336944378753776
        ]
      }
    },
    {
      "type": "Feature",
      "properties": {
        "norad_id": 54243,
        "name": "GALAXY 31 (G-31)",
        "group": "intelsat",
        "lat": 0.030908679499441857,
        "lon": 99.34501316381018,
        "alt_km": 35794.664712609105,
        "timestamp": "2025-12-04T09:47:37.190597+00:00",
        "meta_object_name": "GALAXY 31 (G-31)",
        "meta_object_id": "2022-153A",
        "meta_epoch": "2025-12-03T13:10:46.529760",
        "meta_mean_motion": 1.00271978,
        "meta_eccentricity": 0.00020966,
        "meta_inclination": 0.013,
        "meta_ra_of_asc_node": 357.9065,
        "meta_arg_of_pericenter": 269.749,
        "meta_mean_anomaly": 241.6575,
        "meta_ephemeris_type": 0,
        "meta_classification_type": "U",
        "meta_norad_cat_id": 54243,
        "meta_element_set_no": 999,
        "meta_rev_at_epoch": 517,
        "meta_bstar": 0,
        "meta_mean_motion_dot": 0,
        "meta_mean_motion_ddot": 0,
        "tle_line1": "1 54243U 22153A   25337.54914965  .00000000  00000+0  00000+0 0  9992",
        "tle_line2": "2 54243   0.0130 357.9065 0002096 269.7490 241.6575  1.00271978  5171"
      },
      "geometry": {
        "type": "Point",
        "coordinates": [
          99.34501316381018,
          0.030908679499441857
        ]
      }
    },
    {
      "type": "Feature",
      "properties": {
        "norad_id": 54244,
        "name": "GALAXY 32 (G-32)",
        "group": "intelsat",
        "lat": 0.010360949724370995,
        "lon": 129.3633902012462,
        "alt_km": 35797.144498023714,
        "timestamp": "2025-12-04T09:47:37.190608+00:00",
        "meta_object_name": "GALAXY 32 (G-32)",
        "meta_object_id": "2022-153B",
        "meta_epoch": "2025-12-03T13:19:23.206080",
        "meta_mean_motion": 1.00270437,
        "meta_eccentricity": 0.00025394,
        "meta_inclination": 0.0105,
        "meta_ra_of_asc_node": 329.1215,
        "meta_arg_of_pericenter": 335.3454,
        "meta_mean_anomaly": 237.0261,
        "meta_ephemeris_type": 0,
        "meta_classification_type": "U",
        "meta_norad_cat_id": 54244,
        "meta_element_set_no": 999,
        "meta_rev_at_epoch": 1118,
        "meta_bstar": 0,
        "meta_mean_motion_dot": -1.56e-06,
        "meta_mean_motion_ddot": 0,
        "tle_line1": "1 54244U 22153B   25337.55512970 -.00000156  00000+0  00000+0 0  9997",
        "tle_line2": "2 54244   0.0105 329.1215 0002539 335.3454 237.0261  1.00270437 11182"
      },
      "geometry": {
        "type": "Point",
        "coordinates": [
          129.3633902012462,
          0.010360949724370995
        ]
      }
    }
  ]
}